{
  "type": "FeatureCollection",
  "features": [
    {
      "type": "Feature",
      "id": "lt_c_aisdronezone.1",
      "geometry": {
        "type": "MultiPolygon",
        "coordinates": [
          [
            [
              [
                14160488.59260069,
                4124713.9296361
              ],
              [
                14160730.9854682,
                4124711.74132403
              ],
              [
                14160973.29993871,
                4124705.17709806
              ],
              [
                14161215.45764099,
                4124694.23908886
              ],
              [
                14161457.38025488,
                4124678.93084673
              ],
              [
                14161698.98953722,
                4124659.25734049
              ],
              [
                14161940.20734721,
                4124635.22495572
              ],
              [
                14162180.95567204,
                4124606.84149277
              ],
              [
                14162421.15665242,
                4124574.11616408
              ],
              [
                14162660.73260791,
                4124537.05959115
              ],
              [
                14162899.60606249,
                4124495.68380109
              ],
              [
                14163137.69976966,
                4124450.00222254
              ],
              [
                14163374.93673788,
                4124400.0296812
              ],
              [
                14163611.24025553,
                4124345.78239507
              ],
              [
                14163846.5339162,
                4124287.27796888
              ],
              [
                14164080.74164335,
                4124224.53538844
              ],
              [
                14164313.78771547,
                4124157.57501417
              ],
              [
                14164545.59679053,
                4124086.41857456
              ],
              [
                14164776.09393074,
                4124011.08915878
              ],
              [
                14165005.20462689,
                4123931.6112091
              ],
              [
                14165232.85482272,
                4123848.01051287
              ],
              [
                14165458.97093913,
                4123760.3141939
              ],
              [
                14165683.47989806,
                4123668.55070351
              ],
              [
                14165906.30914631,
                4123572.74981113
              ],
              [
                14166127.38667928,
                4123472.94259439
              ],
              [
                14166346.64106438,
                4123369.16142888
              ],
              [
                14166564.00146422,
                4123261.43997752
              ],
              [
                14166779.39765984,
                4123149.81317927
              ],
              [
                14166992.76007336,
                4123034.31723767
              ],
              [
                14167204.01979078,
                4122914.98960891
              ],
              [
                14167413.10858429,
                4122791.86898934
              ],
              [
                14167619.95893444,
                4122664.99530285
              ],
              [
                14167824.50405214,
                4122534.40968748
              ],
              [
                14168026.67790036,
                4122400.15448202
              ],
              [
                14168226.41521547,
                4122262.27321193
              ],
              [
                14168423.65152851,
                4122120.81057499
              ],
              [
                14168618.32318601,
                4121975.81242658
              ],
              [
                14168810.36737072,
                4121827.32576459
              ],
              [
                14168999.72212179,
                4121675.3987138
              ],
              [
                14169186.32635512,
                4121520.08051013
              ],
              [
                14169370.11988283,
                4121361.4214844
              ],
              [
                14169551.04343283,
                4121199.47304572
              ],
              [
                14169729.03866804,
                4121034.28766453
              ],
              [
                14169904.0482051,
                4120865.91885544
              ],
              [
                14170076.01563308,
                4120694.42115952
              ],
              [
                14170244.88553146,
                4120519.85012638
              ],
              [
                14170410.60348806,
                4120342.26229593
              ],
              [
                14170573.1161167,
                4120161.71517974
              ],
              [
                14170732.37107419,
                4119978.26724223
              ],
              [
                14170888.31707724,
                4119791.97788143
              ],
              [
                14171040.90391895,
                4119602.90740935
              ],
              [
                14171190.08248491,
                4119411.11703242
              ],
              [
                14171335.80476888,
                4119216.6688312
              ],
              [
                14171478.02388835,
                4119019.62574017
              ],
              [
                14171616.69409933,
                4118820.051527
              ],
              [
                14171751.77081116,
                4118618.01077169
              ],
              [
                14171883.21060059,
                4118413.56884542
              ],
              [
                14172010.97122576,
                4118206.79188911
              ],
              [
                14172135.01163961,
                4117997.74679188
              ],
              [
                14172255.29200298,
                4117786.50116907
              ],
              [
                14172371.77369709,
                4117573.12334007
              ],
              [
                14172484.41933616,
                4117357.68230616
              ],
              [
                14172593.19277889,
                4117140.24772791
              ],
              [
                14172698.05914013,
                4116920.88990233
              ],
              [
                14172798.98480182,
                4116699.67974005
              ],
              [
                14172895.93742358,
                4116476.68874211
              ],
              [
                14172988.88595297,
                4116251.98897665
              ],
              [
                14173077.80063509,
                4116025.65305554
              ],
              [
                14173162.65302212,
                4115797.75411053
              ],
              [
                14173243.41598208,
                4115568.36576955
              ],
              [
                14173320.0637073,
                4115337.56213276
              ],
              [
                14173392.57172251,
                4115105.41774837
              ],
              [
                14173460.91689243,
                4114872.00758845
              ],
              [
                14173525.07742881,
                4114637.40702459
              ],
              [
                14173585.03289738,
                4114401.69180334
              ],
              [
                14173640.76422387,
                4114164.93802169
              ],
              [
                14173692.25369998,
                4113927.2221023
              ],
              [
                14173739.48498873,
                4113688.6207688
              ],
              [
                14173782.4431294,
                4113449.21102083
              ],
              [
                14173821.11454199,
                4113209.07010917
              ],
              [
                14173855.48703126,
                4112968.27551068
              ],
              [
                14173885.54979034,
                4112726.90490316
              ],
              [
                14173911.29340385,
                4112485.03614035
              ],
              [
                14173932.7098506,
                4112242.74722665
              ],
              [
                14173949.79250572,
                4112000.11629196
              ],
              [
                14173962.53614264,
                4111757.22156643
              ],
              [
                14173970.93693416,
                4111514.14135514
              ],
              [
                14173974.99245357,
                4111270.95401295
              ],
              [
                14173974.70167486,
                4111027.73791916
              ],
              [
                14173970.06497283,
                4110784.57145221
              ],
              [
                14173961.08412261,
                4110541.53296442
              ],
              [
                14173947.76229859,
                4110298.70075691
              ],
              [
                14173930.10407311,
                4110056.15305419
              ],
              [
                14173908.11541473,
                4109813.96797913
              ],
              [
                14173881.80368582,
                4109572.22352776
              ],
              [
                14173851.17763986,
                4109330.99754427
              ],
              [
                14173816.24741827,
                4109090.36769597
              ],
              [
                14173777.02454681,
                4108850.41144836
              ],
              [
                14173733.52193148,
                4108611.20604024
              ],
              [
                14173685.75385412,
                4108372.82845901
              ],
              [
                14173633.73596733,
                4108135.35541593
              ],
              [
                14173577.48528916,
                4107898.86332154
              ],
              [
                14173517.02019738,
                4107663.42826127
              ],
              [
                14173452.36042307,
                4107429.12597094
              ],
              [
                14173383.52704403,
                4107196.03181265
              ],
              [
                14173310.54247777,
                4106964.22075072
              ],
              [
                14173233.43047385,
                4106733.76732756
              ],
              [
                14173152.21610593,
                4106504.74563999
              ],
              [
                14173066.92576354,
                4106277.22931558
              ],
              [
                14172977.58714316,
                4106051.29148907
              ],
              [
                14172884.22923908,
                4105827.00477914
              ],
              [
                14172786.88233377,
                4105604.44126517
              ],
              [
                14172685.57798799,
                4105383.67246435
              ],
              [
                14172580.34903016,
                4105164.76930886
              ],
              [
                14172471.22954577,
                4104947.80212325
              ],
              [
                14172358.25486594,
                4104732.84060214
              ],
              [
                14172241.46155613,
                4104519.95378797
              ],
              [
                14172120.8874038,
                4104309.21004914
              ],
              [
                14171996.57140633,
                4104100.67705817
              ],
              [
                14171868.55375817,
                4103894.42177035
              ],
              [
                14171736.87583764,
                4103690.51040232
              ],
              [
                14171601.58019361,
                4103489.00841121
              ],
              [
                14171462.71053141,
                4103289.98047372
              ],
              [
                14171320.31169889,
                4103093.49046575
              ],
              [
                14171174.42967164,
                4102899.6014421
              ],
              [
                14171025.11153812,
                4102708.37561644
              ],
              [
                14170872.40548444,
                4102519.8743417
              ],
              [
                14170716.36077867,
                4102334.15809061
              ],
              [
                14170557.02775493,
                4102151.28643654
              ],
              [
                14170394.45779718,
                4101971.31803467
              ],
              [
                14170228.70332244,
                4101794.31060345
              ],
              [
                14170059.81776407,
                4101620.3209064
              ],
              [
                14169887.85555437,
                4101449.4047341
              ],
              [
                14169712.87210713,
                4101281.61688658
              ],
              [
                14169534.9237997,
                4101117.01115615
              ],
              [
                14169354.06795494,
                4100955.64031016
              ],
              [
                14169170.36282269,
                4100797.55607468
              ],
              [
                14168983.86756109,
                4100642.80911784
              ],
              [
                14168794.6422175,
                4100491.44903424
              ],
              [
                14168602.74770938,
                4100343.52432891
              ],
              [
                14168408.24580452,
                4100199.08240238
              ],
              [
                14168211.19910146,
                4100058.16953554
              ],
              [
                14168011.67100921,
                4099920.83087511
              ],
              [
                14167809.72572708,
                4099787.11041952
              ],
              [
                14167605.42822412,
                4099657.05100496
              ],
              [
                14167398.84421818,
                4099530.69429193
              ],
              [
                14167190.04015506,
                4099408.08075216
              ],
              [
                14166979.0831872,
                4099289.24965586
              ],
              [
                14166766.04115218,
                4099174.23905943
              ],
              [
                14166550.98255104,
                4099063.08579346
              ],
              [
                14166333.97652651,
                4098955.82545107
              ],
              [
                14166115.09284086,
                4098852.49237693
              ],
              [
                14165894.40185358,
                4098753.11965637
              ],
              [
                14165671.97449906,
                4098657.73910489
              ],
              [
                14165447.88226387,
                4098566.38125837
              ],
              [
                14165222.19716405,
                4098479.07536333
              ],
              [
                14164994.9917221,
                4098395.84936788
              ],
              [
                14164766.3389439,
                4098316.72991284
              ],
              [
                14164536.31229545,
                4098241.74232343
              ],
              [
                14164304.98567953,
                4098170.91060137
              ],
              [
                14164072.43341202,
                4098104.25741731
              ],
              [
                14163838.73019844,
                4098041.80410369
              ],
              [
                14163603.95111011,
                4097983.57064811
              ],
              [
                14163368.17156019,
                4097929.57568712
              ],
              [
                14163131.46727982,
                4097879.83650021
              ],
              [
                14162893.91429391,
                4097834.36900456
              ],
              [
                14162655.58889707,
                4097793.18774994
              ],
              [
                14162416.56762936,
                4097756.30591429
              ],
              [
                14162176.92725187,
                4097723.73529941
              ],
              [
                14161936.74472241,
                4097695.48632742
              ],
              [
                14161696.09717101,
                4097671.5680374
              ],
              [
                14161455.06187541,
                4097651.98808262
              ],
              [
                14161213.71623652,
                4097636.7527281
              ],
              [
                14160972.13775391,
                4097625.86684867
              ],
              [
                14160730.40400103,
                4097619.33392746
              ],
              [
                14160488.59260069,
                4097617.1560548
              ],
              [
                14160246.78120036,
                4097619.33392746
              ],
              [
                14160005.04744748,
                4097625.86684867
              ],
              [
                14159763.46896488,
                4097636.7527281
              ],
              [
                14159522.12332603,
                4097651.98808262
              ],
              [
                14159281.08803038,
                4097671.5680374
              ],
              [
                14159040.44047899,
                4097695.48632742
              ],
              [
                14158800.25794953,
                4097723.73529941
              ],
              [
                14158560.61757204,
                4097756.30591429
              ],
              [
                14158321.59630432,
                4097793.18774994
              ],
              [
                14158083.27090753,
                4097834.36900456
              ],
              [
                14157845.71792161,
                4097879.83650021
              ],
              [
                14157609.0136412,
                4097929.57568712
              ],
              [
                14157373.23409127,
                4097983.57064811
              ],
              [
                14157138.45500294,
                4098041.80410369
              ],
              [
                14156904.75178938,
                4098104.25741731
              ],
              [
                14156672.19952191,
                4098170.91060137
              ],
              [
                14156440.87290594,
                4098241.74232343
              ],
              [
                14156210.84625749,
                4098316.72991284
              ],
              [
                14155982.1934793,
                4098395.84936788
              ],
              [
                14155754.98803735,
                4098479.07536333
              ],
              [
                14155529.30293755,
                4098566.38125837
              ],
              [
                14155305.21070234,
                4098657.73910489
              ],
              [
                14155082.78334781,
                4098753.11965637
              ],
              [
                14154862.09236053,
                4098852.49237693
              ],
              [
                14154643.20867488,
                4098955.82545107
              ],
              [
                14154426.20265037,
                4099063.08579346
              ],
              [
                14154211.14404925,
                4099174.23905943
              ],
              [
                14153998.1020142,
                4099289.24965586
              ],
              [
                14153787.14504635,
                4099408.08075216
              ],
              [
                14153578.34098324,
                4099530.69429193
              ],
              [
                14153371.75697728,
                4099657.05100496
              ],
              [
                14153167.45947431,
                4099787.11041952
              ],
              [
                14152965.51419218,
                4099920.83087511
              ],
              [
                14152765.98609994,
                4100058.16953554
              ],
              [
                14152568.93939687,
                4100199.08240238
              ],
              [
                14152374.43749202,
                4100343.52432891
              ],
              [
                14152182.54298391,
                4100491.44903424
              ],
              [
                14151993.31764032,
                4100642.80911784
              ],
              [
                14151806.8223787,
                4100797.55607468
              ],
              [
                14151623.11724645,
                4100955.64031016
              ],
              [
                14151442.2614017,
                4101117.01115615
              ],
              [
                14151264.31309428,
                4101281.61688658
              ],
              [
                14151089.32964702,
                4101449.4047341
              ],
              [
                14150917.36743732,
                4101620.3209064
              ],
              [
                14150748.48187895,
                4101794.31060345
              ],
              [
                14150582.72740422,
                4101971.31803467
              ],
              [
                14150420.15744646,
                4102151.28643654
              ],
              [
                14150260.82442272,
                4102334.15809061
              ],
              [
                14150104.77971695,
                4102519.8743417
              ],
              [
                14149952.07366327,
                4102708.37561644
              ],
              [
                14149802.75552975,
                4102899.6014421
              ],
              [
                14149656.8735025,
                4103093.49046575
              ],
              [
                14149514.47467,
                4103289.98047372
              ],
              [
                14149375.6050078,
                4103489.00841121
              ],
              [
                14149240.30936374,
                4103690.51040232
              ],
              [
                14149108.63144322,
                4103894.42177035
              ],
              [
                14148980.61379507,
                4104100.67705817
              ],
              [
                14148856.29779763,
                4104309.21004914
              ],
              [
                14148735.7236453,
                4104519.95378797
              ],
              [
                14148618.93033545,
                4104732.84060214
              ],
              [
                14148505.95565564,
                4104947.80212325
              ],
              [
                14148396.83617123,
                4105164.76930886
              ],
              [
                14148291.60721341,
                4105383.67246435
              ],
              [
                14148190.30286763,
                4105604.44126517
              ],
              [
                14148092.95596233,
                4105827.00477914
              ],
              [
                14147999.59805825,
                4106051.29148907
              ],
              [
                14147910.25943785,
                4106277.22931558
              ],
              [
                14147824.96909547,
                4106504.74563999
              ],
              [
                14147743.75472755,
                4106733.76732756
              ],
              [
                14147666.64272362,
                4106964.22075072
              ],
              [
                14147593.65815735,
                4107196.03181265
              ],
              [
                14147524.82477834,
                4107429.12597094
              ],
              [
                14147460.16500401,
                4107663.42826127
              ],
              [
                14147399.69991223,
                4107898.86332154
              ],
              [
                14147343.44923406,
                4108135.35541593
              ],
              [
                14147291.43134728,
                4108372.82845901
              ],
              [
                14147243.6632699,
                4108611.20604024
              ],
              [
                14147200.16065459,
                4108850.41144836
              ],
              [
                14147160.93778314,
                4109090.36769597
              ],
              [
                14147126.00756155,
                4109330.99754427
              ],
              [
                14147095.38151557,
                4109572.22352776
              ],
              [
                14147069.06978667,
                4109813.96797913
              ],
              [
                14147047.08112831,
                4110056.15305419
              ],
              [
                14147029.42290285,
                4110298.70075691
              ],
              [
                14147016.10107879,
                4110541.53296442
              ],
              [
                14147007.12022856,
                4110784.57145221
              ],
              [
                14147002.48352656,
                4111027.73791916
              ],
              [
                14147002.19274784,
                4111270.95401295
              ],
              [
                14147006.24826724,
                4111514.14135514
              ],
              [
                14147014.64905876,
                4111757.22156643
              ],
              [
                14147027.39269566,
                4112000.11629196
              ],
              [
                14147044.47535079,
                4112242.74722665
              ],
              [
                14147065.89179753,
                4112485.03614035
              ],
              [
                14147091.63541106,
                4112726.90490316
              ],
              [
                14147121.69817014,
                4112968.27551068
              ],
              [
                14147156.07065941,
                4113209.07010917
              ],
              [
                14147194.74207199,
                4113449.21102083
              ],
              [
                14147237.70021266,
                4113688.6207688
              ],
              [
                14147284.93150143,
                4113927.2221023
              ],
              [
                14147336.42097753,
                4114164.93802169
              ],
              [
                14147392.15230401,
                4114401.69180334
              ],
              [
                14147452.1077726,
                4114637.40702459
              ],
              [
                14147516.268309,
                4114872.00758845
              ],
              [
                14147584.61347889,
                4115105.41774837
              ],
              [
                14147657.1214941,
                4115337.56213276
              ],
              [
                14147733.76921931,
                4115568.36576955
              ],
              [
                14147814.53217928,
                4115797.75411053
              ],
              [
                14147899.38456631,
                4116025.65305554
              ],
              [
                14147988.29924844,
                4116251.98897665
              ],
              [
                14148081.24777782,
                4116476.68874211
              ],
              [
                14148178.20039958,
                4116699.67974005
              ],
              [
                14148279.12606127,
                4116920.88990233
              ],
              [
                14148383.99242251,
                4117140.24772791
              ],
              [
                14148492.76586524,
                4117357.68230616
              ],
              [
                14148605.41150431,
                4117573.12334007
              ],
              [
                14148721.89319846,
                4117786.50116907
              ],
              [
                14148842.17356178,
                4117997.74679188
              ],
              [
                14148966.21397564,
                4118206.79188911
              ],
              [
                14149093.97460081,
                4118413.56884542
              ],
              [
                14149225.41439024,
                4118618.01077169
              ],
              [
                14149360.49110206,
                4118820.051527
              ],
              [
                14149499.16131307,
                4119019.62574017
              ],
              [
                14149641.38043253,
                4119216.6688312
              ],
              [
                14149787.10271653,
                4119411.11703242
              ],
              [
                14149936.28128245,
                4119602.90740935
              ],
              [
                14150088.86812415,
                4119791.97788143
              ],
              [
                14150244.8141272,
                4119978.26724223
              ],
              [
                14150404.06908469,
                4120161.71517974
              ],
              [
                14150566.58171334,
                4120342.26229593
              ],
              [
                14150732.29966997,
                4120519.85012638
              ],
              [
                14150901.16956832,
                4120694.42115952
              ],
              [
                14151073.13699629,
                4120865.91885544
              ],
              [
                14151248.14653337,
                4121034.28766453
              ],
              [
                14151426.14176857,
                4121199.47304572
              ],
              [
                14151607.06531857,
                4121361.4214844
              ],
              [
                14151790.85884629,
                4121520.08051013
              ],
              [
                14151977.46307962,
                4121675.3987138
              ],
              [
                14152166.81783072,
                4121827.32576459
              ],
              [
                14152358.86201538,
                4121975.81242658
              ],
              [
                14152553.53367289,
                4122120.81057499
              ],
              [
                14152750.76998593,
                4122262.27321193
              ],
              [
                14152950.50730103,
                4122400.15448202
              ],
              [
                14153152.68114925,
                4122534.40968748
              ],
              [
                14153357.22626697,
                4122664.99530285
              ],
              [
                14153564.07661714,
                4122791.86898934
              ],
              [
                14153773.16541062,
                4122914.98960891
              ],
              [
                14153984.42512804,
                4123034.31723767
              ],
              [
                14154197.78754156,
                4123149.81317927
              ],
              [
                14154413.18373718,
                4123261.43997752
              ],
              [
                14154630.54413703,
                4123369.16142888
              ],
              [
                14154849.79852211,
                4123472.94259439
              ],
              [
                14155070.87605509,
                4123572.74981113
              ],
              [
                14155293.70530333,
                4123668.55070351
              ],
              [
                14155518.21426226,
                4123760.3141939
              ],
              [
                14155744.33037867,
                4123848.01051287
              ],
              [
                14155971.98057452,
                4123931.6112091
              ],
              [
                14156201.09127067,
                4124011.08915878
              ],
              [
                14156431.58841086,
                4124086.41857456
              ],
              [
                14156663.39748594,
                4124157.57501417
              ],
              [
                14156896.44355805,
                4124224.53538844
              ],
              [
                14157130.65128521,
                4124287.27796888
              ],
              [
                14157365.94494586,
                4124345.78239507
              ],
              [
                14157602.24846354,
                4124400.0296812
              ],
              [
                14157839.48543173,
                4124450.00222254
              ],
              [
                14158077.5791389,
                4124495.68380109
              ],
              [
                14158316.45259348,
                4124537.05959115
              ],
              [
                14158556.02854899,
                4124574.11616408
              ],
              [
                14158796.22952936,
                4124606.84149277
              ],
              [
                14159036.97785422,
                4124635.22495572
              ],
              [
                14159278.1956642,
                4124659.25734049
              ],
              [
                14159519.80494652,
                4124678.93084673
              ],
              [
                14159761.72756043,
                4124694.23908886
              ],
              [
                14160003.88526268,
                4124705.17709806
              ],
              [
                14160246.1997332,
                4124711.74132403
              ],
              [
                14160488.59260069,
                4124713.9296361
              ]
            ]
          ]
        ]
      },
      "geometry_name": "ag_geom",
      "properties": {
        "id": 1,
        "name": "고흥 (Goheung)",
        "lateral": "A circle radius 11.1 km (6 NM) centered on 34°36'40\"N 127°12'21\"E",
        "vertical": "1 500 ft",
        "remarks": null
      },
      "bbox": [
        14147002.19274784,
        4097617.1560548,
        14173974.99245357,
        4124713.9296361
      ]
    },
    {
      "type": "Feature",
      "id": "lt_c_aisdronezone.2",
      "geometry": {
        "type": "MultiPolygon",
        "coordinates": [
          [
            [
              [
                14290392.25394031,
                4258931.84376185
              ],
              [
                14290636.7885611,
                4258925.24418955
              ],
              [
                14290880.61724589,
                4258905.46454827
              ],
              [
                14291123.03610415,
                4258872.56200921
              ],
              [
                14291363.34533047,
                4258826.63167274
              ],
              [
                14291600.8512321,
                4258767.80629145
              ],
              [
                14291834.86823842,
                4258696.25588373
              ],
              [
                14292064.72088666,
                4258612.18723873
              ],
              [
                14292289.74577785,
                4258515.84331454
              ],
              [
                14292509.29349741,
                4258407.50253108
              ],
              [
                14292722.73049455,
                4258287.47796003
              ],
              [
                14292929.44091518,
                4258156.11641413
              ],
              [
                14293128.82838287,
                4258013.79743848
              ],
              [
                14293320.31772279,
                4257860.93220708
              ],
              [
                14293503.35662327,
                4257697.96232773
              ],
              [
                14293677.41723061,
                4257525.35855876
              ],
              [
                14293841.99767225,
                4257343.61944172
              ],
              [
                14293996.62350378,
                4257153.26985374
              ],
              [
                14294140.84907612,
                4256954.85948412
              ],
              [
                14294274.25881815,
                4256748.96123939
              ],
              [
                14294396.46843198,
                4256536.16958189
              ],
              [
                14294507.12599667,
                4256317.0988065
              ],
              [
                14294605.91297806,
                4256092.38126064
              ],
              [
                14294692.54514079,
                4255862.66551298
              ],
              [
                14294766.77336136,
                4255628.6144758
              ],
              [
                14294828.38433864,
                4255390.9034871
              ],
              [
                14294877.2012005,
                4255150.21835749
              ],
              [
                14294913.08400492,
                4254907.25338794
              ],
              [
                14294935.93013438,
                4254662.709364
              ],
              [
                14294945.67458166,
                4254417.29153226
              ],
              [
                14294942.29012758,
                4254171.7075652
              ],
              [
                14294925.78740928,
                4253926.66551992
              ],
              [
                14294896.21487942,
                4253682.87179693
              ],
              [
                14294853.65865638,
                4253441.02910488
              ],
              [
                14294798.24226634,
                4253201.83443692
              ],
              [
                14294730.12627734,
                4252965.97706452
              ],
              [
                14294649.50782751,
                4252734.13655466
              ],
              [
                14294556.62004787,
                4252506.98081588
              ],
              [
                14294451.73138255,
                4252285.16417892
              ],
              [
                14294335.14480737,
                4252069.3255172
              ],
              [
                14294207.19695003,
                4251860.08641256
              ],
              [
                14294068.25711399,
                4251658.04937166
              ],
              [
                14293918.72620915,
                4251463.79609791
              ],
              [
                14293759.03559234,
                4251277.88582357
              ],
              [
                14293589.6458211,
                4251100.85370719
              ],
              [
                14293411.04532431,
                4250933.20930063
              ],
              [
                14293223.74899355,
                4250775.43508998
              ],
              [
                14293028.2966992,
                4250627.98511456
              ],
              [
                14292825.25173574,
                4250491.28366764
              ],
              [
                14292615.19920028,
                4250365.72408285
              ],
              [
                14292398.74430959,
                4250251.66760951
              ],
              [
                14292176.51065989,
                4250149.44237977
              ],
              [
                14291949.13843455,
                4250059.34247095
              ],
              [
                14291717.28256493,
                4249981.62706523
              ],
              [
                14291481.61084947,
                4249916.51970928
              ],
              [
                14291242.80203622,
                4249864.20767565
              ],
              [
                14291001.54387465,
                4249824.84142814
              ],
              [
                14290758.53114178,
                4249798.53419211
              ],
              [
                14290514.46364858,
                4249785.36163113
              ],
              [
                14290270.04423202,
                4249785.36163113
              ],
              [
                14290025.97673882,
                4249798.53419211
              ],
              [
                14289782.96400597,
                4249824.84142814
              ],
              [
                14289541.7058444,
                4249864.20767565
              ],
              [
                14289302.89703114,
                4249916.51970928
              ],
              [
                14289067.22531565,
                4249981.62706523
              ],
              [
                14288835.36944604,
                4250059.34247095
              ],
              [
                14288607.99722071,
                4250149.44237977
              ],
              [
                14288385.76357097,
                4250251.66760951
              ],
              [
                14288169.3086803,
                4250365.72408285
              ],
              [
                14287959.25614485,
                4250491.28366764
              ],
              [
                14287756.21118137,
                4250627.98511456
              ],
              [
                14287560.75888705,
                4250775.43508998
              ],
              [
                14287373.46255631,
                4250933.20930063
              ],
              [
                14287194.86205949,
                4251100.85370719
              ],
              [
                14287025.47228827,
                4251277.88582357
              ],
              [
                14286865.78167143,
                4251463.79609794
              ],
              [
                14286716.25076661,
                4251658.04937166
              ],
              [
                14286577.31093055,
                4251860.08641256
              ],
              [
                14286449.36307321,
                4252069.3255172
              ],
              [
                14286332.77649804,
                4252285.16417892
              ],
              [
                14286227.88783272,
                4252506.98081588
              ],
              [
                14286135.00005311,
                4252734.13655466
              ],
              [
                14286054.38160324,
                4252965.97706452
              ],
              [
                14285986.26561427,
                4253201.83443692
              ],
              [
                14285930.8492242,
                4253441.02910488
              ],
              [
                14285888.29300117,
                4253682.87179693
              ],
              [
                14285858.7204713,
                4253926.66551992
              ],
              [
                14285842.21775301,
                4254171.7075652
              ],
              [
                14285838.83329896,
                4254417.29153226
              ],
              [
                14285848.57774624,
                4254662.709364
              ],
              [
                14285871.42387566,
                4254907.25338794
              ],
              [
                14285907.30668012,
                4255150.21835749
              ],
              [
                14285956.12354193,
                4255390.9034871
              ],
              [
                14286017.73451922,
                4255628.6144758
              ],
              [
                14286091.96273982,
                4255862.66551298
              ],
              [
                14286178.59490257,
                4256092.38126064
              ],
              [
                14286277.38188391,
                4256317.0988065
              ],
              [
                14286388.03944862,
                4256536.16958189
              ],
              [
                14286510.24906245,
                4256748.96123939
              ],
              [
                14286643.65880447,
                4256954.85948412
              ],
              [
                14286787.88437681,
                4257153.26985374
              ],
              [
                14286942.51020835,
                4257343.61944172
              ],
              [
                14287107.09064997,
                4257525.35855876
              ],
              [
                14287281.15125731,
                4257697.96232773
              ],
              [
                14287464.19015779,
                4257860.93220708
              ],
              [
                14287655.67949771,
                4258013.79743848
              ],
              [
                14287855.06696544,
                4258156.11641413
              ],
              [
                14288061.77738603,
                4258287.47796003
              ],
              [
                14288275.21438317,
                4258407.50253108
              ],
              [
                14288494.76210273,
                4258515.84331454
              ],
              [
                14288719.78699393,
                4258612.18723873
              ],
              [
                14288949.63964216,
                4258696.25588373
              ],
              [
                14289183.65664848,
                4258767.80629145
              ],
              [
                14289421.16255012,
                4258826.63167274
              ],
              [
                14289661.47177647,
                4258872.56200921
              ],
              [
                14289903.8906347,
                4258905.46454827
              ],
              [
                14290147.71931948,
                4258925.24418955
              ],
              [
                14290392.25394031,
                4258931.84376185
              ]
            ]
          ]
        ]
      },
      "geometry_name": "ag_geom",
      "properties": {
        "id": 2,
        "name": "대구",
        "lateral": "A circle radius 3.7 km (2 NM) centered on 35°39'47\"N 128°22'22\"E",
        "vertical": "1 500 ft",
        "remarks": null
      },
      "bbox": [
        14285838.83329896,
        4249785.36163113,
        14294945.67458166,
        4258931.84376185
      ]
    },
    {
      "type": "Feature",
      "id": "lt_c_aisdronezone.3",
      "geometry": {
        "type": "MultiPolygon",
        "coordinates": [
          [
            [
              [
                14147872.38364413,
                4269861.58313121
              ],
              [
                14148114.74550413,
                4269848.60578478
              ],
              [
                14148354.35960194,
                4269809.82096638
              ],
              [
                14148588.50938564,
                4269745.66866247
              ],
              [
                14148814.54036715,
                4269656.87661528
              ],
              [
                14149029.89026522,
                4269544.45203797
              ],
              [
                14149232.11809414,
                4269409.67014972
              ],
              [
                14149418.93186573,
                4269254.0596635
              ],
              [
                14149588.21458843,
                4269079.38539365
              ],
              [
                14149738.04826799,
                4268887.62818358
              ],
              [
                14149866.73563699,
                4268680.96238455
              ],
              [
                14149972.81936697,
                4268461.73114403
              ],
              [
                14150055.09854659,
                4268232.41978723
              ],
              [
                14150112.64224047,
                4267995.62759659
              ],
              [
                14150144.79997725,
                4267754.03831143
              ],
              [
                14150151.20905091,
                4267510.38968445
              ],
              [
                14150131.79855565,
                4267267.44244178
              ],
              [
                14150086.79011174,
                4267027.94899878
              ],
              [
                14150016.69527829,
                4266794.62228657
              ],
              [
                14149922.30968487,
                4266570.10504174
              ],
              [
                14149804.70395224,
                4266356.93990605
              ],
              [
                14149665.21150799,
                4266157.54067269
              ],
              [
                14149505.41343731,
                4265974.16500286
              ],
              [
                14149327.1205425,
                4265808.88891832
              ],
              [
                14149132.35281569,
                4265663.58335595
              ],
              [
                14148923.3165578,
                4265539.89304628
              ],
              [
                14148702.37940267,
                4265439.21795219
              ],
              [
                14148472.04352838,
                4265362.69747432
              ],
              [
                14148234.91735752,
                4265311.19759937
              ],
              [
                14147993.68606482,
                4265285.30113414
              ],
              [
                14147751.08122343,
                4265285.30113414
              ],
              [
                14147509.84993074,
                4265311.19759937
              ],
              [
                14147272.72375988,
                4265362.69747432
              ],
              [
                14147042.38788559,
                4265439.21795219
              ],
              [
                14146821.45073046,
                4265539.89304628
              ],
              [
                14146612.41447257,
                4265663.58335595
              ],
              [
                14146417.64674575,
                4265808.88891832
              ],
              [
                14146239.35385094,
                4265974.16500286
              ],
              [
                14146079.55578027,
                4266157.54067269
              ],
              [
                14145940.06333603,
                4266356.93990605
              ],
              [
                14145822.45760339,
                4266570.10504174
              ],
              [
                14145728.07200994,
                4266794.62228657
              ],
              [
                14145657.97717651,
                4267027.94899878
              ],
              [
                14145612.96873262,
                4267267.44244178
              ],
              [
                14145593.55823733,
                4267510.38968445
              ],
              [
                14145599.967311,
                4267754.03831143
              ],
              [
                14145632.1250478,
                4267995.62759659
              ],
              [
                14145689.66874167,
                4268232.41978723
              ],
              [
                14145771.94792128,
                4268461.73114403
              ],
              [
                14145878.03165128,
                4268680.96238455
              ],
              [
                14146006.71902027,
                4268887.62818358
              ],
              [
                14146156.55269982,
                4269079.38539365
              ],
              [
                14146325.83542253,
                4269254.0596635
              ],
              [
                14146512.64919413,
                4269409.67014972
              ],
              [
                14146714.87702304,
                4269544.45203797
              ],
              [
                14146930.2269211,
                4269656.87661528
              ],
              [
                14147156.25790261,
                4269745.66866247
              ],
              [
                14147390.40768633,
                4269809.82096638
              ],
              [
                14147630.02178413,
                4269848.60578478
              ],
              [
                14147872.38364413,
                4269861.58313121
              ]
            ]
          ]
        ]
      },
      "geometry_name": "ag_geom",
      "properties": {
        "id": 3,
        "name": "전주",
        "lateral": "A circle radius 1 NM centered on 35°45'34\"N 127°05'33\"E",
        "vertical": "SFC ~ 1 000 ft",
        "remarks": null
      },
      "bbox": [
        14145593.55823733,
        4265285.30113414,
        14150151.20905091,
        4269861.58313121
      ]
    },
    {
      "type": "Feature",
      "id": "lt_c_aisdronezone.4",
      "geometry": {
        "type": "MultiPolygon",
        "coordinates": [
          [
            [
              [
                14224957.42036878,
                4169230.43050021
              ],
              [
                14225199.43778659,
                4169224.5060979
              ],
              [
                14225440.88039678,
                4169206.74698061
              ],
              [
                14225681.17476242,
                4169177.19538312
              ],
              [
                14225919.75018465,
                4169135.92158442
              ],
              [
                14226156.04006337,
                4169083.02373907
              ],
              [
                14226389.48324809,
                4169018.62764196
              ],
              [
                14226619.52537556,
                4168942.8864269
              ],
              [
                14226845.62019083,
                4168855.98019954
              ],
              [
                14227067.23084898,
                4168758.11560597
              ],
              [
                14227283.83119375,
                4168649.52533766
              ],
              [
                14227494.90701052,
                4168530.46757399
              ],
              [
                14227699.95725028,
                4168401.22536431
              ],
              [
                14227898.49522206,
                4168262.10595008
              ],
              [
                14228090.04975025,
                4168113.44002967
              ],
              [
                14228274.16629485,
                4167955.58096701
              ],
              [
                14228450.40803125,
                4167788.90394655
              ],
              [
                14228618.3568877,
                4167613.80507592
              ],
              [
                14228777.61453719,
                4167430.70043926
              ],
              [
                14228927.80334191,
                4167240.02510299
              ],
              [
                14229068.56724811,
                4167042.2320766
              ],
              [
                14229199.57262888,
                4166837.79123113
              ],
              [
                14229320.50907297,
                4166627.18817762
              ],
              [
                14229431.09011817,
                4166410.92310887
              ],
              [
                14229531.05392707,
                4166189.50960659
              ],
              [
                14229620.16390374,
                4165963.47341732
              ],
              [
                14229698.20925015,
                4165733.35120005
              ],
              [
                14229765.00546086,
                4165499.68924815
              ],
              [
                14229820.39475478,
                4165263.04218941
              ],
              [
                14229864.24644326,
                4165023.97166648
              ],
              [
                14229896.45723353,
                4164783.04500164
              ],
              [
                14229916.95146683,
                4164540.83384842
              ],
              [
                14229925.68129091,
                4164297.91283401
              ],
              [
                14229922.62676621,
                4164054.85819493
              ],
              [
                14229907.7959061,
                4163812.24640985
              ],
              [
                14229881.22465031,
                4163570.65283236
              ],
              [
                14229842.97677269,
                4163330.65032736
              ],
              [
                14229793.14372273,
                4163092.80791378
              ],
              [
                14229731.84440169,
                4162857.6894172
              ],
              [
                14229659.22487414,
                4162625.85213563
              ],
              [
                14229575.45801489,
                4162397.84552105
              ],
              [
                14229480.74309326,
                4162174.20988055
              ],
              [
                14229375.30529468,
                4161955.47509933
              ],
              [
                14229259.39518176,
                4161742.15938933
              ],
              [
                14229133.2880953,
                4161534.76806562
              ],
              [
                14228997.28349745,
                4161333.79235408
              ],
              [
                14228851.704258,
                4161139.70823283
              ],
              [
                14228696.89588601,
                4160952.97530977
              ],
              [
                14228533.22570821,
                4160774.03573968
              ],
              [
                14228361.0819965,
                4160603.31318258
              ],
              [
                14228180.87304647,
                4160441.21180592
              ],
              [
                14227993.02620893,
                4160288.11533351
              ],
              [
                14227797.98687728,
                4160144.38614232
              ],
              [
                14227596.21743244,
                4160010.3644102
              ],
              [
                14227388.19614836,
                4159886.36731589
              ],
              [
                14227174.41606055,
                4159772.68829348
              ],
              [
                14226955.38380008,
                4159669.59634261
              ],
              [
                14226731.61839596,
                4159577.33539661
              ],
              [
                14226503.65004882,
                4159496.12374938
              ],
              [
                14226272.01887839,
                4159426.15354277
              ],
              [
                14226037.27364809,
                4159367.59031538
              ],
              [
                14225799.97046954,
                4159320.5726139
              ],
              [
                14225560.67148987,
                4159285.21166794
              ],
              [
                14225319.94356504,
                4159261.59112894
              ],
              [
                14225078.35692237,
                4159249.7668738
              ],
              [
                14224836.48381518,
                4159249.7668738
              ],
              [
                14224594.89717253,
                4159261.59112894
              ],
              [
                14224354.16924769,
                4159285.21166794
              ],
              [
                14224114.870268,
                4159320.5726139
              ],
              [
                14223877.56708946,
                4159367.59031538
              ],
              [
                14223642.82185919,
                4159426.15354277
              ],
              [
                14223411.19068873,
                4159496.12374938
              ],
              [
                14223183.22234159,
                4159577.33539661
              ],
              [
                14222959.4569375,
                4159669.59634261
              ],
              [
                14222740.424677,
                4159772.68829348
              ],
              [
                14222526.6445892,
                4159886.36731589
              ],
              [
                14222318.62330514,
                4160010.3644102
              ],
              [
                14222116.85386026,
                4160144.38614232
              ],
              [
                14221921.81452861,
                4160288.11533351
              ],
              [
                14221733.96769108,
                4160441.21180592
              ],
              [
                14221553.75874104,
                4160603.31318258
              ],
              [
                14221381.61502934,
                4160774.03573968
              ],
              [
                14221217.94485154,
                4160952.97530977
              ],
              [
                14221063.13647954,
                4161139.70823283
              ],
              [
                14220917.5572401,
                4161333.79235408
              ],
              [
                14220781.55264224,
                4161534.76806562
              ],
              [
                14220655.44555579,
                4161742.15938933
              ],
              [
                14220539.53544287,
                4161955.47509933
              ],
              [
                14220434.09764429,
                4162174.20988055
              ],
              [
                14220339.38272265,
                4162397.84552105
              ],
              [
                14220255.61586344,
                4162625.85213563
              ],
              [
                14220182.99633587,
                4162857.6894172
              ],
              [
                14220121.69701485,
                4163092.80791378
              ],
              [
                14220071.86396486,
                4163330.65032736
              ],
              [
                14220033.61608723,
                4163570.65283236
              ],
              [
                14220007.04483145,
                4163812.24640985
              ],
              [
                14219992.21397133,
                4164054.85819493
              ],
              [
                14219989.15944667,
                4164297.91283401
              ],
              [
                14219997.88927071,
                4164540.83384842
              ],
              [
                14220018.38350403,
                4164783.04500164
              ],
              [
                14220050.59429429,
                4165023.97166648
              ],
              [
                14220094.44598276,
                4165263.04218941
              ],
              [
                14220149.83527668,
                4165499.68924815
              ],
              [
                14220216.63148738,
                4165733.35120005
              ],
              [
                14220294.67683381,
                4165963.47341732
              ],
              [
                14220383.78681047,
                4166189.50960659
              ],
              [
                14220483.75061937,
                4166410.92310887
              ],
              [
                14220594.33166461,
                4166627.18817762
              ],
              [
                14220715.2681087,
                4166837.79123113
              ],
              [
                14220846.27348944,
                4167042.2320766
              ],
              [
                14220987.03739564,
                4167240.02510299
              ],
              [
                14221137.22620038,
                4167430.70043926
              ],
              [
                14221296.48384983,
                4167613.80507592
              ],
              [
                14221464.43270633,
                4167788.90394655
              ],
              [
                14221640.67444273,
                4167955.58096701
              ],
              [
                14221824.7909873,
                4168113.44002967
              ],
              [
                14222016.34551549,
                4168262.10595008
              ],
              [
                14222214.88348726,
                4168401.22536431
              ],
              [
                14222419.93372706,
                4168530.46757399
              ],
              [
                14222631.00954379,
                4168649.52533766
              ],
              [
                14222847.60988856,
                4168758.11560597
              ],
              [
                14223069.22054673,
                4168855.98019954
              ],
              [
                14223295.31536201,
                4168942.8864269
              ],
              [
                14223525.35748946,
                4169018.62764196
              ],
              [
                14223758.80067419,
                4169083.02373907
              ],
              [
                14223995.0905529,
                4169135.92158442
              ],
              [
                14224233.66597514,
                4169177.19538312
              ],
              [
                14224473.96034076,
                4169206.74698061
              ],
              [
                14224715.40295097,
                4169224.5060979
              ],
              [
                14224957.42036878,
                4169230.43050021
              ]
            ]
          ]
        ]
      },
      "geometry_name": "ag_geom",
      "properties": {
        "id": 4,
        "name": "광양",
        "lateral": "A circle radius 4 km (2.2 NM) centered on 35°00'09.46\"N 127°47'05.88\"E",
        "vertical": "1 500 ft",
        "remarks": "1. 광양(Gwangyang) Restricted area operating day : From MON to FRI (EXC SAT and SUN) 2. UA 25 Ultralight vehicle flight area operating day : SAT and SUN (EXC From MON to FRI)"
      },
      "bbox": [
        14219989.15944667,
        4159249.7668738,
        14229925.68129091,
        4169230.43050021
      ]
    },
    {
      "type": "Feature",
      "id": "lt_c_aisdronezone.5",
      "geometry": {
        "type": "MultiPolygon",
        "coordinates": [
          [
            [
              [
                14060610.27169451,
                3937600.37691886
              ],
              [
                14060846.35367984,
                3937584.49629352
              ],
              [
                14061078.22087731,
                3937537.1380632
              ],
              [
                14061301.73384701,
                3937459.14808493
              ],
              [
                14061512.90249111,
                3937351.91927966
              ],
              [
                14061707.95736389,
                3937217.36669096
              ],
              [
                14061883.41701848,
                3937057.89320129
              ],
              [
                14062036.15018221,
                3936876.34652535
              ],
              [
                14062163.43164777,
                3936675.96825693
              ],
              [
                14062262.99088173,
                3936460.33588831
              ],
              [
                14062333.05248486,
                3936233.29884643
              ],
              [
                14062372.3677861,
                3935998.9096957
              ],
              [
                14062380.23701273,
                3935761.35174327
              ],
              [
                14062356.52164924,
                3935524.8643431
              ],
              [
                14062301.64677328,
                3935293.66723583
              ],
              [
                14062216.59333681,
                3935071.88527464
              ],
              [
                14062102.88053972,
                3934863.47487873
              ],
              [
                14061962.53861888,
                3934672.15352221
              ],
              [
                14061798.07254546,
                3934501.33351046
              ],
              [
                14061612.41728353,
                3934354.06121746
              ],
              [
                14061408.88541117,
                3934232.96285889
              ],
              [
                14061191.10803894,
                3934140.1977596
              ],
              [
                14060962.97007837,
                3934077.41993948
              ],
              [
                14060728.54100971,
                3934045.74869509
              ],
              [
                14060492.00237931,
                3934045.74869509
              ],
              [
                14060257.57331067,
                3934077.41993948
              ],
              [
                14060029.43535006,
                3934140.1977596
              ],
              [
                14059811.65797787,
                3934232.96285889
              ],
              [
                14059608.12610548,
                3934354.06121746
              ],
              [
                14059422.47084355,
                3934501.33351046
              ],
              [
                14059258.00477012,
                3934672.15352221
              ],
              [
                14059117.66284929,
                3934863.47487873
              ],
              [
                14059003.95005222,
                3935071.88527464
              ],
              [
                14058918.89661575,
                3935293.66723583
              ],
              [
                14058864.02173977,
                3935524.8643431
              ],
              [
                14058840.3063763,
                3935761.35174327
              ],
              [
                14058848.17560293,
                3935998.9096957
              ],
              [
                14058887.49090417,
                3936233.29884643
              ],
              [
                14058957.55250729,
                3936460.33588831
              ],
              [
                14059057.11174125,
                3936675.96825693
              ],
              [
                14059184.39320679,
                3936876.34652535
              ],
              [
                14059337.12637052,
                3937057.89320129
              ],
              [
                14059512.58602514,
                3937217.36669096
              ],
              [
                14059707.64089789,
                3937351.91927966
              ],
              [
                14059918.809542,
                3937459.14808493
              ],
              [
                14060142.32251173,
                3937537.1380632
              ],
              [
                14060374.18970917,
                3937584.49629352
              ],
              [
                14060610.27169451,
                3937600.37691886
              ]
            ]
          ]
        ]
      },
      "geometry_name": "ag_geom",
      "properties": {
        "id": 5,
        "name": "서귀포",
        "lateral": "A circle radius 1.5 km (0.8 NM) centered on 33°18'17.00\"N 126°18'31.00\"E",
        "vertical": "1 000 ft",
        "remarks": null
      },
      "bbox": [
        14058840.3063763,
        3934045.74869509,
        14062380.23701273,
        3937600.37691886
      ]
    },
    {
      "type": "Feature",
      "id": "lt_c_aisdronezone.6",
      "geometry": {
        "type": "MultiPolygon",
        "coordinates": [
          [
            [
              [
                14335445.72563082,
                4336302.80602389
              ],
              [
                14336775.37510417,
                4333427.08370972
              ],
              [
                14333404.8682996,
                4331855.3461687
              ],
              [
                14333930.54367282,
                4330782.09595949
              ],
              [
                14327622.43919448,
                4327754.57222602
              ],
              [
                14325767.11434794,
                4331587.0236112
              ],
              [
                14335445.72563082,
                4336302.80602389
              ]
            ]
          ]
        ]
      },
      "geometry_name": "ag_geom",
      "properties": {
        "id": 6,
        "name": "의성",
        "lateral": "36°13'29\"N 128°41'26\"E - 36°15'32\"N 128°46'39\"E - 36°14'17\"N 128°47'22\"E - 36°13'36\"N 128°45'33\"E - 36°13'08\"N 128°45'50\"E - 36°11'49\"N 128°42'26\"E - to the beginning",
        "vertical": "SFC ~ 1 000 ft AGL",
        "remarks": null
      },
      "bbox": [
        14325767.11434794,
        4327754.57222602,
        14336775.37510417,
        4336302.80602389
      ]
    },
    {
      "type": "Feature",
      "id": "lt_c_aisdronezone.7",
      "geometry": {
        "type": "MultiPolygon",
        "coordinates": [
          [
            [
              [
                14111060.88336363,
                4479788.40513963
              ],
              [
                14113612.88269006,
                4479788.40513963
              ],
              [
                14113764.09166509,
                4474125.29825643
              ],
              [
                14110257.52770507,
                4474029.73467995
              ],
              [
                14109370.68242843,
                4475428.31251946
              ],
              [
                14109359.55047934,
                4477766.68319409
              ],
              [
                14111060.88336363,
                4479788.40513963
              ]
            ]
          ]
        ]
      },
      "geometry_name": "ag_geom",
      "properties": {
        "id": 7,
        "name": "화성",
        "lateral": "37°17'28.68\"N 126°45'42.54\"E - 37°16'36.66\"N 126°44'47.52\"E - 37°15'36.48\"N 126°44'47.88\"E - 37°15'00.48\"N 126°45'16.56\"E - 37°15'02.94\"N 126°47'09.96\"E - 37°17'28.68\"N 126°47'05.07\"E - to the beginning",
        "vertical": "1 000 ft",
        "remarks": "1. 화성(Hwaseong) Restricted area operating day : From MON to FRI (EXC SAT and SUN) 2. UA 19 Ultralight vehicle flight area operating day : SAT and SUN (EXC From MON to FRI)"
      },
      "bbox": [
        14109359.55047934,
        4474029.73467995,
        14113764.09166509,
        4479788.40513963
      ]
    },
    {
      "type": "Feature",
      "id": "lt_c_aisdronezone.8",
      "geometry": {
        "type": "MultiPolygon",
        "coordinates": [
          [
            [
              [
                14376812.21730126,
                4176767.6120571
              ],
              [
                14376851.96985669,
                4176639.38580108
              ],
              [
                14376931.23306309,
                4176408.09065777
              ],
              [
                14377002.17680706,
                4176174.09085225
              ],
              [
                14377064.71012365,
                4175937.6883193
              ],
              [
                14377118.75291001,
                4175699.18805558
              ],
              [
                14377164.23602645,
                4175458.89772494
              ],
              [
                14377201.10138268,
                4175217.12726074
              ],
              [
                14377229.30200988,
                4174974.18846504
              ],
              [
                14377248.80211864,
                4174730.39460621
              ],
              [
                14377259.57714202,
                4174486.06001404
              ],
              [
                14377261.61376421,
                4174241.49967442
              ],
              [
                14377254.90993503,
                4173997.02882298
              ],
              [
                14377239.4748693,
                4173752.96253873
              ],
              [
                14377215.32903227,
                4173509.61533808
              ],
              [
                14377182.50411003,
                4173267.30077002
              ],
              [
                14377141.04296599,
                4173026.33101225
              ],
              [
                14377090.99958267,
                4172787.01646984
              ],
              [
                14377032.43898948,
                4172549.6653762
              ],
              [
                14376965.43717599,
                4172314.58339662
              ],
              [
                14376890.08099133,
                4172082.07323611
              ],
              [
                14376806.4680302,
                4171852.43425051
              ],
              [
                14376714.70650409,
                4171625.96206248
              ],
              [
                14376614.91509996,
                4171402.94818242
              ],
              [
                14376507.22282499,
                4171183.67963475
              ],
              [
                14376391.76883839,
                4170968.43859009
              ],
              [
                14376268.70227012,
                4170757.50200413
              ],
              [
                14376138.18202731,
                4170551.14126285
              ],
              [
                14376000.37658774,
                4170349.62183551
              ],
              [
                14375855.46378147,
                4170153.20293503
              ],
              [
                14375703.6305609,
                4169962.13718676
              ],
              [
                14375545.07275842,
                4169776.67030551
              ],
              [
                14375379.99483373,
                4169597.04078181
              ],
              [
                14375208.60960982,
                4169423.47957758
              ],
              [
                14375031.13799825,
                4169256.20983098
              ],
              [
                14374847.80871451,
                4169095.44657227
              ],
              [
                14374658.85798346,
                4168941.39644913
              ],
              [
                14374464.52923513,
                4168794.25746343
              ],
              [
                14374265.07279174,
                4168654.21871888
              ],
              [
                14374060.74554562,
                4168521.46018022
              ],
              [
                14373851.81062932,
                4168396.15244378
              ],
              [
                14373638.53707758,
                4168278.45652047
              ],
              [
                14373421.19948201,
                4168168.52363077
              ],
              [
                14373200.07763861,
                4168066.49501238
              ],
              [
                14372975.45618901,
                4167972.50174033
              ],
              [
                14370480.44314991,
                4174304.72482378
              ],
              [
                14376812.21730126,
                4176767.6120571
              ]
            ]
          ]
        ]
      },
      "geometry_name": "ag_geom",
      "properties": {
        "id": 8,
        "name": "부산",
        "lateral": "A sector of circle radius 5.5 km (3 NM) arc centered on 35°04'36\"N 129°05'32\"E, starting from 35°05'36.6\"N 129°08'41.0\"E to 35°01'58.7\"N 129°06'48.9\"E clockwise",
        "vertical": "within 0.5 km, 1 000 ft / within 0.5~5.5km,  1 500 ft",
        "remarks": null
      },
      "bbox": [
        14370480.44314991,
        4167972.50174033,
        14377261.61376421,
        4176767.6120571
      ]
    }
  ],
  "totalFeatures": 8,
  "numberMatched": 8,
  "numberReturned": 8,
  "timeStamp": "2026-05-25T13:48:38.288Z",
  "crs": {
    "type": "name",
    "properties": {
      "name": "urn:ogc:def:crs:EPSG::3857"
    }
  },
  "bbox": [
    14058840.3063763,
    3934045.74869509,
    14377261.61376421,
    4479788.40513963
  ]
}