{
  "type": "FeatureCollection",
  "features": [
    {
      "type": "Feature",
      "id": "lt_c_aisaltc.1",
      "geometry": {
        "type": "MultiPolygon",
        "coordinates": [
          [
            [
              [
                14114050.62803435,
                4506368.40966922
              ],
              [
                14114095.71242812,
                4505716.83166286
              ],
              [
                14114050.01577716,
                4505065.36428478
              ],
              [
                14113914.53995687,
                4504426.63032138
              ],
              [
                14113691.90097528,
                4503813.10926903
              ],
              [
                14113386.44029254,
                4503236.71689022
              ],
              [
                14113004.11350142,
                4502708.59538385
              ],
              [
                14112552.32334803,
                4502239.04393525
              ],
              [
                14112039.91973191,
                4501837.23901118
              ],
              [
                14111476.81008773,
                4501510.95472958
              ],
              [
                14110874.07070483,
                4501266.49354809
              ],
              [
                14110243.27881025,
                4501108.61685649
              ],
              [
                14109596.79086746,
                4501040.40532645
              ],
              [
                14108947.1303192,
                4501063.18919003
              ],
              [
                14108306.93192764,
                4501176.4783049
              ],
              [
                14107688.66347578,
                4501378.17241173
              ],
              [
                14107104.29180886,
                4501664.21032842
              ],
              [
                14106565.22717469,
                4502029.20042762
              ],
              [
                14106081.98926516,
                4502465.92924362
              ],
              [
                14105663.87325774,
                4502965.92157953
              ],
              [
                14105319.11679476,
                4503519.50982486
              ],
              [
                14105054.39904564,
                4504115.97338754
              ],
              [
                14104874.89636674,
                4504743.60805689
              ],
              [
                14104784.115322,
                4505390.28638146
              ],
              [
                14104783.83702328,
                4506043.38711658
              ],
              [
                14104874.06147056,
                4506690.21577265
              ],
              [
                14105053.1188715,
                4507318.14488384
              ],
              [
                14105317.39134264,
                4507915.03508021
              ],
              [
                14105661.92516665,
                4508469.16536636
              ],
              [
                14106079.87419484,
                4508969.72475091
              ],
              [
                14106563.22342385,
                4509407.02345955
              ],
              [
                14107102.510697,
                4509772.49373812
              ],
              [
                14107687.21632239,
                4510059.04145684
              ],
              [
                14108305.93005223,
                4510261.04687303
              ],
              [
                14108946.68504124,
                4510374.57576712
              ],
              [
                14109596.90218695,
                4510397.379927
              ],
              [
                14110244.00238693,
                4510329.03776256
              ],
              [
                14110875.29521922,
                4510170.88419658
              ],
              [
                14111478.47988009,
                4509926.08065674
              ],
              [
                14112041.81216325,
                4509599.26386733
              ],
              [
                14112554.38275861,
                4509196.89610005
              ],
              [
                14113006.11725225,
                4508726.77332018
              ],
              [
                14113388.27706413,
                4508198.09455416
              ],
              [
                14113693.45944815,
                4507621.25058217
              ],
              [
                14113915.65315177,
                4507007.33210619
              ],
              [
                14114050.62803435,
                4506368.40966922
              ]
            ]
          ]
        ]
      },
      "geometry_name": "ag_geom",
      "properties": {
        "alert_labe": "<FNT name='TW Cen MT' size='6'><CLR cyan='46' magenta='56' yellow='73' black='0'>A811<UND>1 000 AGL</UND>SFC</CLR></FNT>",
        "alt_lbl_1": "A811",
        "alt_lbl_2": "1 000 AGL",
        "alt_lbl_3": "SFC"
      },
      "bbox": [
        14104783.83702328,
        4501040.40532645,
        14114095.71242812,
        4510397.379927
      ]
    },
    {
      "type": "Feature",
      "id": "lt_c_aisaltc.2",
      "geometry": {
        "type": "MultiPolygon",
        "coordinates": [
          [
            [
              [
                14163415.7015046,
                4514794.38834997
              ],
              [
                14163472.02916694,
                4513979.301898
              ],
              [
                14163414.81094867,
                4513164.34908761
              ],
              [
                14163245.21570445,
                4512365.32035152
              ],
              [
                14162966.63867874,
                4511597.86100232
              ],
              [
                14162584.4232071,
                4510876.91028256
              ],
              [
                14162106.08335517,
                4510216.35134809
              ],
              [
                14161540.91430041,
                4509629.08249477
              ],
              [
                14160899.93667241,
                4509126.52717842
              ],
              [
                14160195.61825417,
                4508718.35465949
              ],
              [
                14159441.59568328,
                4508412.62154877
              ],
              [
                14158652.56313253,
                4508215.21165476
              ],
              [
                14157843.93835141,
                4508129.90703755
              ],
              [
                14157031.30606862,
                4508158.38860061
              ],
              [
                14156230.52931161,
                4508300.09605035
              ],
              [
                14155457.13714932,
                4508552.29795997
              ],
              [
                14154726.15771303,
                4508910.09133401
              ],
              [
                14154051.83989754,
                4509366.54116637
              ],
              [
                14153447.31940278,
                4509912.81975129
              ],
              [
                14152924.2847753,
                4510538.20548502
              ],
              [
                14152492.97740822,
                4511230.71306795
              ],
              [
                14152161.74626336,
                4511976.74141142
              ],
              [
                14151937.10353095,
                4512761.84433843
              ],
              [
                14151823.44633084,
                4513570.79983739
              ],
              [
                14151823.00105288,
                4514387.81989928
              ],
              [
                14151935.76769705,
                4515196.97125524
              ],
              [
                14152159.63119304,
                4515982.59654379
              ],
              [
                14152490.25008069,
                4516729.31464972
              ],
              [
                14152921.16782955,
                4517422.58297458
              ],
              [
                14153444.03547781,
                4518048.90902569
              ],
              [
                14154048.7229518,
                4518596.0621985
              ],
              [
                14154723.37472575,
                4519053.3559002
              ],
              [
                14155454.85509976,
                4519411.8594908
              ],
              [
                14156228.97083872,
                4519664.61015166
              ],
              [
                14157030.63815168,
                4519806.61389731
              ],
              [
                14157844.1609904,
                4519835.19747585
              ],
              [
                14158653.67632745,
                4519749.65766291
              ],
              [
                14159443.48811462,
                4519551.82318938
              ],
              [
                14160198.17860245,
                4519245.42240746
              ],
              [
                14160902.94229867,
                4518836.57428382
              ],
              [
                14161544.14256564,
                4518333.08523966
              ],
              [
                14162109.31162039,
                4517744.93960356
              ],
              [
                14162587.3731736,
                4517083.52591503
              ],
              [
                14162969.03204779,
                4516361.77609144
              ],
              [
                14163246.94115656,
                4515593.74291505
              ],
              [
                14163415.7015046,
                4514794.38834997
              ]
            ]
          ]
        ]
      },
      "geometry_name": "ag_geom",
      "properties": {
        "alert_labe": "<FNT name='TW Cen MT' size='6'><CLR cyan='46' magenta='56' yellow='73' black='0'>A810<UND>1 000 AGL</UND>SFC</CLR></FNT>",
        "alt_lbl_1": "A810",
        "alt_lbl_2": "1 000 AGL",
        "alt_lbl_3": "SFC"
      },
      "bbox": [
        14151823.00105288,
        4508129.90703755,
        14163472.02916694,
        4519835.19747585
      ]
    },
    {
      "type": "Feature",
      "id": "lt_c_aisaltc.3",
      "geometry": {
        "type": "MultiPolygon",
        "coordinates": [
          [
            [
              [
                14081915.5853491,
                4439106.78725058
              ],
              [
                14120877.40712674,
                4369640.51064982
              ],
              [
                14081915.5853491,
                4355801.26497187
              ],
              [
                14044809.06986476,
                4400844.33908435
              ],
              [
                14081915.5853491,
                4439106.78725058
              ]
            ]
          ]
        ]
      },
      "geometry_name": "ag_geom",
      "properties": {
        "alert_labe": "<FNT name='TW Cen MT' size='6'><CLR cyan='46' magenta='56' yellow='73' black='0'>A20T<UND>2 000 AGL</UND>700 AGL</CLR></FNT>",
        "alt_lbl_1": "A20T",
        "alt_lbl_2": "2 000 AGL",
        "alt_lbl_3": "700 AGL"
      },
      "bbox": [
        14044809.06986476,
        4355801.26497187,
        14120877.40712674,
        4439106.78725058
      ]
    },
    {
      "type": "Feature",
      "id": "lt_c_aisaltc.4",
      "geometry": {
        "type": "MultiPolygon",
        "coordinates": [
          [
            [
              [
                14208077.69346806,
                4457708.08887253
              ],
              [
                14235907.56616638,
                4457708.08887253
              ],
              [
                14224775.61708705,
                4446078.43585835
              ],
              [
                14235907.56616638,
                4436783.94662264
              ],
              [
                14235907.56616638,
                4429818.40621608
              ],
              [
                14208077.69346806,
                4429818.40621608
              ],
              [
                14208077.69346806,
                4457708.08887253
              ]
            ]
          ]
        ]
      },
      "geometry_name": "ag_geom",
      "properties": {
        "alert_labe": "<FNT name='TW Cen MT' size='6'><CLR cyan='46' magenta='56' yellow='73' black='0'>A19T<UND>2 000 AGL</UND>800 AGL</CLR></FNT>",
        "alt_lbl_1": "A19T",
        "alt_lbl_2": "2 000 AGL",
        "alt_lbl_3": "800 AGL"
      },
      "bbox": [
        14208077.69346806,
        4429818.40621608,
        14235907.56616638,
        4457708.08887253
      ]
    },
    {
      "type": "Feature",
      "id": "lt_c_aisaltc.5",
      "geometry": {
        "type": "MultiPolygon",
        "coordinates": [
          [
            [
              [
                14354648.33779262,
                4555921.56726586
              ],
              [
                14354901.14435621,
                4555918.81880136
              ],
              [
                14355153.83960032,
                4555910.57341222
              ],
              [
                14355406.31220543,
                4555896.90158482
              ],
              [
                14355658.39519233,
                4555877.66239423
              ],
              [
                14355910.03290127,
                4555853.06729033
              ],
              [
                14356161.05835301,
                4555822.90489276
              ],
              [
                14356411.41588781,
                4555787.38666759
              ],
              [
                14356660.93852642,
                4555746.37172518
              ],
              [
                14356909.51494936,
                4555700.00107448
              ],
              [
                14357157.03383714,
                4555648.20431552
              ],
              [
                14357403.32821051,
                4555591.12247182
              ],
              [
                14357648.39806951,
                4555528.61468881
              ],
              [
                14357892.02077511,
                4555460.89247535
              ],
              [
                14358134.14066758,
                4555387.81499362
              ],
              [
                14358374.64642743,
                4555309.59376446
              ],
              [
                14358613.42673518,
                4555226.08796641
              ],
              [
                14358850.31461159,
                4555137.43866309
              ],
              [
                14359085.25439692,
                4555043.7164535
              ],
              [
                14359318.13477165,
                4554944.85100796
              ],
              [
                14359548.78875658,
                4554840.98340541
              ],
              [
                14359777.16069194,
                4554732.11379571
              ],
              [
                14360003.194918,
                4554618.38326518
              ],
              [
                14360226.66879576,
                4554499.72150945
              ],
              [
                14360447.5266655,
                4554376.26962326
              ],
              [
                14360665.71286745,
                4554248.02777716
              ],
              [
                14360881.06042239,
                4554115.06660952
              ],
              [
                14361093.45801082,
                4553977.52722188
              ],
              [
                14361302.90563276,
                4553835.33933651
              ],
              [
                14361509.23630894,
                4553688.64406067
              ],
              [
                14361712.33871989,
                4553537.58249963
              ],
              [
                14361912.15720586,
                4553382.08438736
              ],
              [
                14362108.52478762,
                4553222.2908331
              ],
              [
                14362301.44146517,
                4553058.34294289
              ],
              [
                14362490.79591901,
                4552890.17046019
              ],
              [
                14362676.47682965,
                4552717.9849451
              ],
              [
                14362858.42853735,
                4552541.78659682
              ],
              [
                14363036.48406287,
                4552361.7165179
              ],
              [
                14363210.69906596,
                4552177.77490932
              ],
              [
                14363380.85090765,
                4551990.10287001
              ],
              [
                14363546.93958791,
                4551798.84149284
              ],
              [
                14363708.85378727,
                4551603.99097572
              ],
              [
                14363866.59350572,
                4551405.69240593
              ],
              [
                14364019.99176404,
                4551204.01642208
              ],
              [
                14364168.99290246,
                4550999.03366057
              ],
              [
                14364313.54126125,
                4550790.88519417
              ],
              [
                14364453.58118067,
                4550579.64165006
              ],
              [
                14364589.05700097,
                4550365.44408829
              ],
              [
                14364719.9130624,
                4550148.36312555
              ],
              [
                14364846.03804547,
                4549928.46937507
              ],
              [
                14364967.43195018,
                4549705.90387778
              ],
              [
                14365083.98345704,
                4549480.80766467
              ],
              [
                14365195.6369063,
                4549253.18089987
              ],
              [
                14365302.39229798,
                4549023.23502953
              ],
              [
                14365404.1939723,
                4548790.97020725
              ],
              [
                14365500.93060981,
                4548556.59785896
              ],
              [
                14365592.60221047,
                4548320.18854887
              ],
              [
                14365679.20877431,
                4548081.88325646
              ],
              [
                14365760.63898182,
                4547841.75253056
              ],
              [
                14365836.89283302,
                4547599.86691451
              ],
              [
                14365907.91466814,
                4547356.36736146
              ],
              [
                14365973.7044872,
                4547111.465226
              ],
              [
                14366034.20663045,
                4546865.16060701
              ],
              [
                14366089.36543814,
                4546617.66483532
              ],
              [
                14366139.23657001,
                4546368.97799579
              ],
              [
                14366183.70870658,
                4546119.24098783
              ],
              [
                14366222.78184785,
                4545868.66510316
              ],
              [
                14366256.51165356,
                4545617.32080593
              ],
              [
                14366284.78680422,
                4545365.20815167
              ],
              [
                14366307.66295959,
                4545112.67919761
              ],
              [
                14366325.08445989,
                4544859.5931767
              ],
              [
                14366337.05130514,
                4544606.30211389
              ],
              [
                14366343.61915511,
                4544352.73562883
              ],
              [
                14366344.67669026,
                4544099.17531538
              ],
              [
                14366340.33523013,
                4543845.55078123
              ],
              [
                14366330.48345519,
                4543592.21398113
              ],
              [
                14366315.23268496,
                4543339.02411733
              ],
              [
                14366294.52725967,
                4543086.33311209
              ],
              [
                14366268.36717934,
                4542834.07054412
              ],
              [
                14366236.80810369,
                4542582.51791502
              ],
              [
                14366199.90569249,
                4542331.6751733
              ],
              [
                14366157.54862625,
                4542081.68302724
              ],
              [
                14366109.84822444,
                4541832.68217184
              ],
              [
                14366056.86014683,
                4541584.81328889
              ],
              [
                14365998.4730739,
                4541338.14667233
              ],
              [
                14365934.85398491,
                4541092.75260987
              ],
              [
                14365865.94722011,
                4540848.84212605
              ],
              [
                14365791.86409899,
                4540606.55585637
              ],
              [
                14365712.5489618,
                4540365.82331925
              ],
              [
                14365628.11312803,
                4540126.92587347
              ],
              [
                14365538.50093795,
                4539889.93375782
              ],
              [
                14365443.87937077,
                4539654.91720573
              ],
              [
                14365344.19276676,
                4539422.01680725
              ],
              [
                14365239.55244541,
                4539191.30278083
              ],
              [
                14365130.01406649,
                4538962.98605756
              ],
              [
                14365015.52197019,
                4538737.06647989
              ],
              [
                14364896.24313581,
                4538513.61424768
              ],
              [
                14364772.17756333,
                4538292.91061927
              ],
              [
                14364643.43657223,
                4538074.88506726
              ],
              [
                14364510.0201625,
                4537859.74847763
              ],
              [
                14364372.03965366,
                4537647.50067153
              ],
              [
                14364229.4950457,
                4537438.35251798
              ],
              [
                14364082.49765812,
                4537232.37417755
              ],
              [
                14363931.15881038,
                4537029.56546238
              ],
              [
                14363775.42284276,
                4536830.06687631
              ],
              [
                14363615.51239423,
                4536634.08925853
              ],
              [
                14363451.37180506,
                4536441.56206877
              ],
              [
                14363283.16805448,
                4536252.62579692
              ],
              [
                14363110.95680221,
                4536067.4209263
              ],
              [
                14362934.79370804,
                4535885.94725814
              ],
              [
                14362754.79009143,
                4535708.34527131
              ],
              [
                14362571.00161212,
                4535534.6851037
              ],
              [
                14362383.53958963,
                4535365.10722744
              ],
              [
                14362192.51534343,
                4535199.61144344
              ],
              [
                14361997.92887352,
                4535038.26788972
              ],
              [
                14361799.94715915,
                4534881.14670488
              ],
              [
                14361598.62586004,
                4534728.38835855
              ],
              [
                14361394.07629571,
                4534580.06298832
              ],
              [
                14361186.40978564,
                4534436.17040511
              ],
              [
                14360975.68198957,
                4534296.78075283
              ],
              [
                14360762.00422699,
                4534162.0345038
              ],
              [
                14360545.4878174,
                4534031.93147812
              ],
              [
                14360326.24408027,
                4533906.61215146
              ],
              [
                14360104.38433513,
                4533786.00602761
              ],
              [
                14359879.96424168,
                4533670.25358929
              ],
              [
                14359653.09511945,
                4533559.35467499
              ],
              [
                14359423.94394766,
                4533453.44977323
              ],
              [
                14359192.56638604,
                4533352.468411
              ],
              [
                14358959.01809436,
                4533256.62140628
              ],
              [
                14358723.52171158,
                4533165.76797821
              ],
              [
                14358486.13289746,
                4533080.04863461
              ],
              [
                14358246.90731174,
                4532999.53356753
              ],
              [
                14358006.06759342,
                4532924.22265653
              ],
              [
                14357763.66940222,
                4532854.11578892
              ],
              [
                14357519.76839788,
                4532789.21285987
              ],
              [
                14357274.58721942,
                4532729.72472251
              ],
              [
                14357028.1258668,
                4532675.51065149
              ],
              [
                14356780.60697902,
                4532626.64088069
              ],
              [
                14356532.08621583,
                4532583.11533503
              ],
              [
                14356282.73055644,
                4532545.00426316
              ],
              [
                14356032.54000089,
                4532512.30760576
              ],
              [
                14355781.73718814,
                4532485.09562705
              ],
              [
                14355530.43343767,
                4532463.22765423
              ],
              [
                14355278.68440923,
                4532446.84428339
              ],
              [
                14355026.65708208,
                4532435.9454887
              ],
              [
                14354774.46277569,
                4532430.46093827
              ],
              [
                14354522.21280955,
                4532430.46093827
              ],
              [
                14354270.01850316,
                4532435.9454887
              ],
              [
                14354017.99117601,
                4532446.84428339
              ],
              [
                14353766.24214758,
                4532463.22765423
              ],
              [
                14353514.9383971,
                4532485.09562705
              ],
              [
                14353264.13558435,
                4532512.30760576
              ],
              [
                14353013.9450288,
                4532545.00426316
              ],
              [
                14352764.58936941,
                4532583.11533503
              ],
              [
                14352516.06860622,
                4532626.64088069
              ],
              [
                14352268.54971844,
                4532675.51065149
              ],
              [
                14352022.08836582,
                4532729.72472251
              ],
              [
                14351776.90718736,
                4532789.21285987
              ],
              [
                14351533.00618303,
                4532854.11578892
              ],
              [
                14351290.60799182,
                4532924.22265653
              ],
              [
                14351049.7682735,
                4532999.53356753
              ],
              [
                14350810.54268778,
                4533080.04863461
              ],
              [
                14350573.15387366,
                4533165.76797821
              ],
              [
                14350337.65749089,
                4533256.62140628
              ],
              [
                14350104.1091992,
                4533352.468411
              ],
              [
                14349872.73163759,
                4533453.44977323
              ],
              [
                14349643.58046579,
                4533559.35467499
              ],
              [
                14349416.71134356,
                4533670.25358929
              ],
              [
                14349192.29125012,
                4533786.00602761
              ],
              [
                14348970.43150497,
                4533906.61215146
              ],
              [
                14348751.18776785,
                4534031.93147812
              ],
              [
                14348534.67135825,
                4534162.0345038
              ],
              [
                14348320.99359567,
                4534296.78075283
              ],
              [
                14348110.2657996,
                4534436.17040511
              ],
              [
                14347902.59928953,
                4534580.06298832
              ],
              [
                14347698.0497252,
                4534728.38835855
              ],
              [
                14347496.72842609,
                4534881.14670488
              ],
              [
                14347298.74671172,
                4535038.26788972
              ],
              [
                14347104.16024181,
                4535199.61144344
              ],
              [
                14346913.13599561,
                4535365.10722744
              ],
              [
                14346725.67397312,
                4535534.6851037
              ],
              [
                14346541.88549381,
                4535708.34527131
              ],
              [
                14346361.8818772,
                4535885.94725814
              ],
              [
                14346185.71878303,
                4536067.4209263
              ],
              [
                14346013.50753076,
                4536252.62579692
              ],
              [
                14345845.30378018,
                4536441.56206877
              ],
              [
                14345681.16319101,
                4536634.08925853
              ],
              [
                14345521.25274248,
                4536830.06687631
              ],
              [
                14345365.51677486,
                4537029.56546238
              ],
              [
                14345214.17792712,
                4537232.37417755
              ],
              [
                14345067.18053954,
                4537438.35251798
              ],
              [
                14344924.63593158,
                4537647.50067153
              ],
              [
                14344786.65542274,
                4537859.74847763
              ],
              [
                14344653.23901302,
                4538074.88506726
              ],
              [
                14344524.49802191,
                4538292.91061927
              ],
              [
                14344400.43244943,
                4538513.61424768
              ],
              [
                14344281.15361505,
                4538737.06647989
              ],
              [
                14344166.66151876,
                4538962.98605756
              ],
              [
                14344057.12313982,
                4539191.30278083
              ],
              [
                14343952.48281848,
                4539422.01680725
              ],
              [
                14343852.79621447,
                4539654.91720573
              ],
              [
                14343758.17464729,
                4539889.93375782
              ],
              [
                14343668.56245721,
                4540126.92587347
              ],
              [
                14343584.12662344,
                4540365.82331925
              ],
              [
                14343504.81148625,
                4540606.55585637
              ],
              [
                14343430.72836513,
                4540848.84212605
              ],
              [
                14343361.82160033,
                4541092.75260987
              ],
              [
                14343298.20251134,
                4541338.14667233
              ],
              [
                14343239.81543842,
                4541584.81328889
              ],
              [
                14343186.8273608,
                4541832.68217184
              ],
              [
                14343139.126959,
                4542081.68302724
              ],
              [
                14343096.76989275,
                4542331.6751733
              ],
              [
                14343059.86748155,
                4542582.51791502
              ],
              [
                14343028.30840591,
                4542834.07054412
              ],
              [
                14343002.14832557,
                4543086.33311209
              ],
              [
                14342981.44290029,
                4543339.02411733
              ],
              [
                14342966.19213005,
                4543592.21398113
              ],
              [
                14342956.34035512,
                4543845.55078123
              ],
              [
                14342951.99889498,
                4544099.17531538
              ],
              [
                14342953.05643013,
                4544352.73562883
              ],
              [
                14342959.6242801,
                4544606.30211389
              ],
              [
                14342971.59112536,
                4544859.5931767
              ],
              [
                14342989.01262567,
                4545112.67919761
              ],
              [
                14343011.88878102,
                4545365.20815167
              ],
              [
                14343040.16393168,
                4545617.32080593
              ],
              [
                14343073.89373739,
                4545868.66510316
              ],
              [
                14343112.96687866,
                4546119.24098783
              ],
              [
                14343157.43901523,
                4546368.97799579
              ],
              [
                14343207.3101471,
                4546617.66483532
              ],
              [
                14343262.4689548,
                4546865.16060701
              ],
              [
                14343322.97109804,
                4547111.465226
              ],
              [
                14343388.76091709,
                4547356.36736146
              ],
              [
                14343459.78275222,
                4547599.86691451
              ],
              [
                14343536.03660342,
                4547841.75253056
              ],
              [
                14343617.46681093,
                4548081.88325646
              ],
              [
                14343704.07337478,
                4548320.18854887
              ],
              [
                14343795.74497543,
                4548556.59785896
              ],
              [
                14343892.48161294,
                4548790.97020725
              ],
              [
                14343994.28328727,
                4549023.23502953
              ],
              [
                14344101.03867894,
                4549253.18089987
              ],
              [
                14344212.6921282,
                4549480.80766467
              ],
              [
                14344329.24363506,
                4549705.90387778
              ],
              [
                14344450.63753978,
                4549928.46937507
              ],
              [
                14344576.76252284,
                4550148.36312555
              ],
              [
                14344707.61858427,
                4550365.44408829
              ],
              [
                14344843.09440457,
                4550579.64165006
              ],
              [
                14344983.13432399,
                4550790.88519417
              ],
              [
                14345127.68268278,
                4550999.03366057
              ],
              [
                14345276.6838212,
                4551204.01642208
              ],
              [
                14345430.08207952,
                4551405.69240593
              ],
              [
                14345587.82179797,
                4551603.99097572
              ],
              [
                14345749.73599733,
                4551798.84149284
              ],
              [
                14345915.82467759,
                4551990.10287001
              ],
              [
                14346085.97651928,
                4552177.77490932
              ],
              [
                14346260.19152237,
                4552361.7165179
              ],
              [
                14346438.24704789,
                4552541.78659682
              ],
              [
                14346620.19875559,
                4552717.9849451
              ],
              [
                14346805.87966623,
                4552890.17046019
              ],
              [
                14346995.23412007,
                4553058.34294289
              ],
              [
                14347188.15079762,
                4553222.2908331
              ],
              [
                14347384.51837938,
                4553382.08438736
              ],
              [
                14347584.33686536,
                4553537.58249963
              ],
              [
                14347787.43927631,
                4553688.64406067
              ],
              [
                14347993.76995248,
                4553835.33933651
              ],
              [
                14348203.21757442,
                4553977.52722188
              ],
              [
                14348415.61516285,
                4554115.06660952
              ],
              [
                14348630.9627178,
                4554248.02777716
              ],
              [
                14348849.14891975,
                4554376.26962326
              ],
              [
                14349070.00678948,
                4554499.72150945
              ],
              [
                14349293.48066724,
                4554618.38326518
              ],
              [
                14349519.5148933,
                4554732.11379571
              ],
              [
                14349747.88682866,
                4554840.98340541
              ],
              [
                14349978.54081359,
                4554944.85100796
              ],
              [
                14350211.42118832,
                4555043.7164535
              ],
              [
                14350446.36097365,
                4555137.43866309
              ],
              [
                14350683.24885005,
                4555226.08796641
              ],
              [
                14350922.02915781,
                4555309.59376446
              ],
              [
                14351162.53491767,
                4555387.81499362
              ],
              [
                14351404.65481014,
                4555460.89247535
              ],
              [
                14351648.27751575,
                4555528.61468881
              ],
              [
                14351893.34737472,
                4555591.12247182
              ],
              [
                14352139.64174811,
                4555648.20431552
              ],
              [
                14352387.16063588,
                4555700.00107448
              ],
              [
                14352635.73705883,
                4555746.37172518
              ],
              [
                14352885.25969743,
                4555787.38666759
              ],
              [
                14353135.61723223,
                4555822.90489276
              ],
              [
                14353386.64268397,
                4555853.06729033
              ],
              [
                14353638.28039291,
                4555877.66239423
              ],
              [
                14353890.36337981,
                4555896.90158482
              ],
              [
                14354142.83598492,
                4555910.57341222
              ],
              [
                14354395.53122903,
                4555918.81880136
              ],
              [
                14354648.33779262,
                4555921.56726586
              ]
            ]
          ]
        ]
      },
      "geometry_name": "ag_geom",
      "properties": {
        "alert_labe": "<FNT name='TW Cen MT' size='6'><CLR cyan='46' magenta='56' yellow='73' black='0'>A18<UND>FL 150</UND>SFC</CLR></FNT>",
        "alt_lbl_1": "A18",
        "alt_lbl_2": "FL 150",
        "alt_lbl_3": "SFC"
      },
      "bbox": [
        14342951.99889498,
        4532430.46093827,
        14366344.67669026,
        4555921.56726586
      ]
    },
    {
      "type": "Feature",
      "id": "lt_c_aisaltc.6",
      "geometry": {
        "type": "MultiPolygon",
        "coordinates": [
          [
            [
              [
                14224775.61708705,
                4446078.43585835
              ],
              [
                14235907.56616638,
                4457708.08887253
              ],
              [
                14247039.51524571,
                4448403.31589245
              ],
              [
                14235907.56616638,
                4436783.94662264
              ],
              [
                14224775.61708705,
                4446078.43585835
              ]
            ]
          ]
        ]
      },
      "geometry_name": "ag_geom",
      "properties": {
        "alert_labe": "<FNT name='TW Cen MT' size='6'><CLR cyan='46' magenta='56' yellow='73' black='0'>A19<UND>FL 150</UND>SFC</CLR></FNT>",
        "alt_lbl_1": "A19",
        "alt_lbl_2": "FL 150",
        "alt_lbl_3": "SFC"
      },
      "bbox": [
        14224775.61708705,
        4436783.94662264,
        14247039.51524571,
        4457708.08887253
      ]
    },
    {
      "type": "Feature",
      "id": "lt_c_aisaltc.7",
      "geometry": {
        "type": "MultiPolygon",
        "coordinates": [
          [
            [
              [
                14123443.93988062,
                4418914.8829161
              ],
              [
                14152417.92948106,
                4418876.23788929
              ],
              [
                14152325.16327585,
                4404355.65621053
              ],
              [
                14126659.83618237,
                4403815.3782943
              ],
              [
                14123443.93988062,
                4418914.8829161
              ]
            ]
          ]
        ]
      },
      "geometry_name": "ag_geom",
      "properties": {
        "alert_labe": "<FNT name='TW Cen MT' size='6'><CLR cyan='46' magenta='56' yellow='73' black='0'>A2<UND>5 000 MSL</UND>SFC</CLR></FNT>",
        "alt_lbl_1": "A2",
        "alt_lbl_2": "5 000 MSL",
        "alt_lbl_3": "SFC"
      },
      "bbox": [
        14123443.93988062,
        4403815.3782943,
        14152417.92948106,
        4418914.8829161
      ]
    },
    {
      "type": "Feature",
      "id": "lt_c_aisaltc.8",
      "geometry": {
        "type": "MultiPolygon",
        "coordinates": [
          [
            [
              [
                13859431.2141788,
                3917447.12847925
              ],
              [
                14000219.44792679,
                3917521.00922407
              ],
              [
                13999910.22709429,
                3804364.78546892
              ],
              [
                13990509.91458788,
                3777904.54031437
              ],
              [
                13860327.95445945,
                3777356.94841221
              ],
              [
                13859431.2141788,
                3917447.12847925
              ]
            ]
          ]
        ]
      },
      "geometry_name": "ag_geom",
      "properties": {
        "alert_labe": "<FNT name='TW Cen MT' size='6'><CLR cyan='46' magenta='56' yellow='73' black='0'>A8<UND>FL 140</UND>SFC</CLR></FNT>",
        "alt_lbl_1": "A8",
        "alt_lbl_2": "FL 140",
        "alt_lbl_3": "SFC"
      },
      "bbox": [
        13859431.2141788,
        3777356.94841221,
        14000219.44792679,
        3917521.00922407
      ]
    }
  ],
  "totalFeatures": 8,
  "numberMatched": 8,
  "numberReturned": 8,
  "timeStamp": "2026-05-25T13:48:34.019Z",
  "crs": {
    "type": "name",
    "properties": {
      "name": "urn:ogc:def:crs:EPSG::3857"
    }
  },
  "bbox": [
    13859431.2141788,
    3777356.94841221,
    14366344.67669026,
    4555921.56726586
  ]
}