{
  "type": "FeatureCollection",
  "features": [
    {
      "type": "Feature",
      "id": "lt_c_aistemp.1",
      "geometry": {
        "type": "MultiPolygon",
        "coordinates": [
          [
            [
              [
                14090635.61212792,
                4489444.54935476
              ],
              [
                14095366.69048664,
                4489444.54935476
              ],
              [
                14095366.69048664,
                4485982.6858192
              ],
              [
                14090635.61212792,
                4485982.6858192
              ],
              [
                14090635.61212792,
                4489444.54935476
              ]
            ]
          ]
        ]
      },
      "geometry_name": "ag_geom",
      "properties": {
        "prohibited": "<FNT name='TW Cen MT' size='6'><red='13' green='23' blue='110'><UND>500 AGL</UND> SFC</CLR></FNT>",
        "notam": "A)RKRR  B)2501311500  C)2504301459",
        "prh_lbl_1": null,
        "prh_lbl_2": "500 AGL",
        "prh_lbl_3": "SFC"
      },
      "bbox": [
        14090635.61212792,
        4485982.6858192,
        14095366.69048664,
        4489444.54935476
      ]
    },
    {
      "type": "Feature",
      "id": "lt_c_aistemp.2",
      "geometry": {
        "type": "MultiPolygon",
        "coordinates": [
          [
            [
              [
                14134761.42139514,
                4522332.18358563
              ],
              [
                14135004.10050701,
                4522306.56620153
              ],
              [
                14135236.16995305,
                4522230.83437982
              ],
              [
                14135447.48435308,
                4522108.30002243
              ],
              [
                14135628.8065042,
                4521944.32150059
              ],
              [
                14135772.21139341,
                4521746.06894372
              ],
              [
                14135871.43262161,
                4521522.21026825
              ],
              [
                14135922.13608782,
                4521282.53177242
              ],
              [
                14135922.10900485,
                4521037.50997869
              ],
              [
                14135871.35605557,
                4520797.85351374
              ],
              [
                14135772.09858328,
                4520574.03509069
              ],
              [
                14135628.67695587,
                4520375.83404779
              ],
              [
                14135447.36046663,
                4520211.9093942
              ],
              [
                14135236.07314958,
                4520089.42194507
              ],
              [
                14135004.04752471,
                4520013.72196073
              ],
              [
                14134761.42139514,
                4519988.11583817
              ],
              [
                14134518.79526556,
                4520013.72196073
              ],
              [
                14134286.7696407,
                4520089.42194507
              ],
              [
                14134075.48232365,
                4520211.9093942
              ],
              [
                14133894.1658344,
                4520375.83404779
              ],
              [
                14133750.744207,
                4520574.03509069
              ],
              [
                14133651.4867347,
                4520797.85351374
              ],
              [
                14133600.73378542,
                4521037.50997869
              ],
              [
                14133600.70670245,
                4521282.53177242
              ],
              [
                14133651.41016867,
                4521522.21026825
              ],
              [
                14133750.63139687,
                4521746.06894372
              ],
              [
                14133894.03628608,
                4521944.32150059
              ],
              [
                14134075.3584372,
                4522108.30002243
              ],
              [
                14134286.67283723,
                4522230.83437982
              ],
              [
                14134518.74228327,
                4522306.56620153
              ],
              [
                14134761.42139514,
                4522332.18358563
              ]
            ]
          ]
        ]
      },
      "geometry_name": "ag_geom",
      "properties": {
        "prohibited": "<UND>1700 FT</UND> SFC",
        "notam": "A)RKRR B)2507311500 C)2510301459",
        "prh_lbl_1": null,
        "prh_lbl_2": "1700 FT",
        "prh_lbl_3": "SFC"
      },
      "bbox": [
        14133600.70670245,
        4519988.11583817,
        14135922.13608782,
        4522332.18358563
      ]
    },
    {
      "type": "Feature",
      "id": "lt_c_aistemp.3",
      "geometry": {
        "type": "MultiPolygon",
        "coordinates": [
          [
            [
              [
                14134854.18763747,
                4526317.7359399
              ],
              [
                14135104.89344326,
                4526310.97107525
              ],
              [
                14135354.87543219,
                4526290.69603817
              ],
              [
                14135603.41188549,
                4526256.96944234
              ],
              [
                14135849.78527446,
                4526209.88878744
              ],
              [
                14136093.28434007,
                4526149.59017503
              ],
              [
                14136333.20615411,
                4526076.24791198
              ],
              [
                14136568.85815579,
                4525990.07400286
              ],
              [
                14136799.56015791,
                4525891.31753227
              ],
              [
                14137024.64631647,
                4525780.26393954
              ],
              [
                14137243.46705832,
                4525657.23418758
              ],
              [
                14137455.39096079,
                4525522.58382878
              ],
              [
                14137659.80657808,
                4525376.70197009
              ],
              [
                14137856.12420906,
                4525220.01014121
              ],
              [
                14138043.77760108,
                4525052.96106849
              ],
              [
                14138222.22558528,
                4524876.03735891
              ],
              [
                14138390.95363798,
                4524689.75009721
              ],
              [
                14138549.47536466,
                4524494.63736141
              ],
              [
                14138697.33390094,
                4524291.2626602
              ],
              [
                14138834.10322784,
                4524080.21329707
              ],
              [
                14138959.38939647,
                4523862.09866667
              ],
              [
                14139072.83165944,
                4523637.54848719
              ],
              [
                14139174.10350541,
                4523407.21097544
              ],
              [
                14139262.91359384,
                4523171.75096858
              ],
              [
                14139339.00658736,
                4522931.84799917
              ],
              [
                14139402.16387988,
                4522688.19432846
              ],
              [
                14139452.20421738,
                4522441.49294408
              ],
              [
                14139488.98421112,
                4522192.45552757
              ],
              [
                14139512.39874058,
                4521941.80039828
              ],
              [
                14139522.38124596,
                4521690.2504389
              ],
              [
                14139518.90390903,
                4521438.53100927
              ],
              [
                14139501.97772238,
                4521187.36785407
              ],
              [
                14139471.65244639,
                4520937.48501068
              ],
              [
                14139428.01645497,
                4520689.60272311
              ],
              [
                14139371.19646973,
                4520444.43536806
              ],
              [
                14139301.35718426,
                4520202.68939903
              ],
              [
                14139218.70077928,
                4519965.06131434
              ],
              [
                14139123.46633036,
                4519732.23565504
              ],
              [
                14139015.92910977,
                4519504.88303809
              ],
              [
                14138896.39978515,
                4519283.65823054
              ],
              [
                14138765.22351656,
                4519069.19827049
              ],
              [
                14138622.77895525,
                4518862.12063955
              ],
              [
                14138469.47714705,
                4518663.0214925
              ],
              [
                14138305.76034333,
                4518472.47394878
              ],
              [
                14138132.10072281,
                4518291.02645076
              ],
              [
                14137948.99902886,
                4518119.20119354
              ],
              [
                14137756.9831252,
                4517957.49263041
              ],
              [
                14137556.60647467,
                4517806.36605824
              ],
              [
                14137348.44654543,
                4517666.25628686
              ],
              [
                14137133.10314909,
                4517537.5663961
              ],
              [
                14136911.19671556,
                4517420.66658385
              ],
              [
                14136683.36650949,
                4517315.8931084
              ],
              [
                14136450.26879334,
                4517223.54732814
              ],
              [
                14136212.57494265,
                4517143.89484095
              ],
              [
                14135970.96951826,
                4517077.16472607
              ],
              [
                14135726.14830153,
                4517023.54889024
              ],
              [
                14135478.81629764,
                4516983.20152004
              ],
              [
                14135229.68571307,
                4516956.238642
              ],
              [
                14134979.47391273,
                4516942.73779144
              ],
              [
                14134728.90136222,
                4516942.73779144
              ],
              [
                14134478.68956189,
                4516956.238642
              ],
              [
                14134229.55897734,
                4516983.20152004
              ],
              [
                14133982.22697341,
                4517023.54889024
              ],
              [
                14133737.40575667,
                4517077.16472607
              ],
              [
                14133495.80033231,
                4517143.89484095
              ],
              [
                14133258.10648164,
                4517223.54732814
              ],
              [
                14133025.00876547,
                4517315.8931084
              ],
              [
                14132797.17855938,
                4517420.66658385
              ],
              [
                14132575.27212585,
                4517537.5663961
              ],
              [
                14132359.92872951,
                4517666.25628686
              ],
              [
                14132151.76880027,
                4517806.36605824
              ],
              [
                14131951.39214974,
                4517957.49263041
              ],
              [
                14131759.37624608,
                4518119.20119354
              ],
              [
                14131576.27455215,
                4518291.02645076
              ],
              [
                14131402.61493162,
                4518472.47394878
              ],
              [
                14131238.89812789,
                4518663.0214925
              ],
              [
                14131085.5963197,
                4518862.12063955
              ],
              [
                14130943.15175842,
                4519069.19827049
              ],
              [
                14130811.97548979,
                4519283.65823054
              ],
              [
                14130692.44616517,
                4519504.88303809
              ],
              [
                14130584.90894459,
                4519732.23565504
              ],
              [
                14130489.67449566,
                4519965.06131434
              ],
              [
                14130407.01809068,
                4520202.68939903
              ],
              [
                14130337.1788052,
                4520444.43536806
              ],
              [
                14130280.35881995,
                4520689.60272311
              ],
              [
                14130236.72282855,
                4520937.48501068
              ],
              [
                14130206.39755258,
                4521187.36785407
              ],
              [
                14130189.47136591,
                4521438.53100927
              ],
              [
                14130185.99402898,
                4521690.2504389
              ],
              [
                14130195.97653435,
                4521941.80039828
              ],
              [
                14130219.39106383,
                4522192.45552757
              ],
              [
                14130256.17105757,
                4522441.49294408
              ],
              [
                14130306.21139508,
                4522688.19432846
              ],
              [
                14130369.36868758,
                4522931.84799917
              ],
              [
                14130445.46168112,
                4523171.75096858
              ],
              [
                14130534.27176951,
                4523407.21097544
              ],
              [
                14130635.5436155,
                4523637.54848719
              ],
              [
                14130748.98587847,
                4523862.09866667
              ],
              [
                14130874.27204709,
                4524080.21329707
              ],
              [
                14131011.04137399,
                4524291.2626602
              ],
              [
                14131158.89991029,
                4524494.63736141
              ],
              [
                14131317.42163696,
                4524689.75009721
              ],
              [
                14131486.1496897,
                4524876.03735891
              ],
              [
                14131664.59767386,
                4525052.96106849
              ],
              [
                14131852.25106589,
                4525220.01014121
              ],
              [
                14132048.56869686,
                4525376.70197009
              ],
              [
                14132252.98431417,
                4525522.58382878
              ],
              [
                14132464.90821662,
                4525657.23418758
              ],
              [
                14132683.72895847,
                4525780.26393954
              ],
              [
                14132908.81511704,
                4525891.31753227
              ],
              [
                14133139.51711916,
                4525990.07400286
              ],
              [
                14133375.16912083,
                4526076.24791198
              ],
              [
                14133615.09093488,
                4526149.59017503
              ],
              [
                14133858.59000049,
                4526209.88878744
              ],
              [
                14134104.96338945,
                4526256.96944234
              ],
              [
                14134353.49984275,
                4526290.69603817
              ],
              [
                14134603.48183168,
                4526310.97107525
              ],
              [
                14134854.18763747,
                4526317.7359399
              ]
            ]
          ]
        ]
      },
      "geometry_name": "ag_geom",
      "properties": {
        "prohibited": "D3554/25",
        "notam": "D3554/25 E)TEMPO PROHIBITED AREA ACT AS FLW A CIRCLE RADIUS 2NM CENTERED ON 373523N1265832E",
        "prh_lbl_1": "D3554/25",
        "prh_lbl_2": "UND",
        "prh_lbl_3": "SFC"
      },
      "bbox": [
        14130185.99402898,
        4516942.73779144,
        14139522.38124596,
        4526317.7359399
      ]
    }
  ],
  "totalFeatures": 3,
  "numberMatched": 3,
  "numberReturned": 3,
  "timeStamp": "2026-05-25T13:48:37.323Z",
  "crs": {
    "type": "name",
    "properties": {
      "name": "urn:ogc:def:crs:EPSG::3857"
    }
  },
  "bbox": [
    14090635.61212792,
    4485982.6858192,
    14139522.38124596,
    4526317.7359399
  ]
}